ONEWEB-0531             
1 54146U 22138AK  25032.48011832  .00000106  00000+0  22885-3 0  9999
2 54146  87.9271  14.0569 0002566  68.7135 291.4272 13.20770418113218
ONEWEB-0535             
1 54147U 22138AL  25032.53682883  .00000107  00000+0  23467-3 0  9994
2 54147  87.9138  44.4726 0001963  83.6857 276.4499 13.19723937110808
ONEWEB-0536             
1 54148U 22138AM  25032.46748606 -.00000447  00000+0 -11306-2 0  9990
2 54148  87.9268  14.1066 0002777  69.5346 290.6085 13.20772999113204
ONEWEB-0527             
1 54642U 22166A   25032.81813781  .00000232  00000+0  53020-3 0  9996
2 54642  87.9339 343.7092 0001952  81.4718 278.6637 13.21825101105881
ONEWEB-0528             
1 54643U 22166B   25032.37026945  .00000048  00000+0  83949-4 0  9995
2 54643  87.9344 343.7925 0001865  84.6506 275.4841 13.21825040105385
ONEWEB-0539             
1 54644U 22166C   25032.40649341 -.00000383  00000+0 -95829-3 0  9994
2 54644  87.9319 343.7921 0001546  81.9527 278.1783 13.21829696105389
ONEWEB-0540             
1 54645U 22166D   25032.41285622 -.00004282  00000+0 -10401-1 0  9997
2 54645  87.9336 343.7998 0001515  81.6476 278.4829 13.21851994105378
ONEWEB-0542             
1 54646U 22166E   25032.41599981  .00000162  00000+0  36039-3 0  9992
2 54646  87.9328 343.7878 0001501  71.3556 288.7741 13.21823040105386
